OBJECT_NAME,OBJECT_ID,EPOCH,MEAN_MOTION,ECCENTRICITY,INCLINATION,RA_OF_ASC_NODE,ARG_OF_PERICENTER,MEAN_ANOMALY,EPHEMERIS_TYPE,CLASSIFICATION_TYPE,NORAD_CAT_ID,ELEMENT_SET_NO,REV_AT_EPOCH,BSTAR,MEAN_MOTION_DOT,MEAN_MOTION_DDOT
NAVSTAR 43 (USA 132),1997-035A,2024-01-20T04:53:20.954400,2.00565124,.0075841,55.6254,132.9567,53.2418,307.4301,0,U,24876,999,19432,0,-.24E-6,0
NAVSTAR 47 (USA 150),2000-025A,2024-01-20T02:23:20.052096,2.00560528,.0040716,54.5462,54.9637,210.0540,165.1126,0,U,26360,999,17364,0,-.7E-6,0
NAVSTAR 51 (USA 166),2003-005A,2024-01-20T14:56:37.550976,2.00558091,.0137706,55.1731,249.9079,46.2444,324.4860,0,U,27663,999,15369,0,.56E-6,0
NAVSTAR 52 (USA 168),2003-010A,2024-01-20T11:25:32.778048,2.00557191,.0253449,55.1152,359.7926,322.6094,159.5864,0,U,27704,999,15248,0,-.96E-6,0
NAVSTAR 56 (USA 180),2004-045A,2024-01-20T13:43:46.874784,2.00537925,.0164929,55.4431,0.1572,287.5890,251.7101,0,U,28474,999,14080,0,-.95E-6,0
ANIK F1R,2005-036A,2024-01-20T14:36:45.864288,1.00271589,.0001714,2.0493,87.4653,234.0116,269.8535,0,U,28868,999,3764,0,-.72E-6,0
NAVSTAR 57 (USA 183),2005-038A,2024-01-20T14:19:40.610784,2.00565863,.0139025,55.6274,308.4236,282.6555,251.3149,0,U,28874,999,13421,0,-.84E-6,0
INMARSAT 4-F2,2005-044A,2024-01-20T12:41:57.708960,1.00272468,.0002294,4.0259,41.8348,264.5081,147.0224,0,U,28899,999,6671,0,-.259E-5,0
NAVSTAR 58 (USA 190),2006-042A,2024-01-20T13:29:37.358880,2.00563338,.010478,54.6815,186.1751,36.4001,12.7165,0,U,29486,999,12677,0,.79E-6,0
NAVSTAR 59 (USA 192),2006-052A,2024-01-19T22:11:46.093056,2.00557676,.0087013,55.1987,248.9040,80.3573,280.6937,0,U,29601,999,12577,0,.53E-6,0
NAVSTAR 60 (USA 196),2007-047A,2024-01-20T05:33:02.950560,2.00572108,.015228,53.5300,116.4238,73.5328,288.1337,0,U,32260,999,11918,0,-.5E-6,0
COSMOS 2433,2007-052A,2024-01-19T01:20:38.391360,2.13103902,.0004742,65.9861,345.3854,271.7320,88.2108,0,U,32275,999,12630,0,-.7E-6,0
COSMOS 2432,2007-052B,2024-01-19T07:31:36.519168,2.13103186,.0012132,66.0006,345.4879,320.5636,183.6772,0,U,32276,999,12633,0,-.72E-6,0
NAVSTAR 61 (USA 199),2007-062A,2024-01-20T07:24:52.269984,2.00565757,.0024165,55.7632,309.2766,148.9521,35.4236,0,U,32384,999,11788,0,-.85E-6,0
COSMOS 2434,2007-065A,2024-01-20T14:30:51.853248,2.13103092,.0005115,64.3261,221.6117,74.5999,285.1825,0,U,32393,999,12504,0,.112E-5,0
COSMOS 2436,2007-065C,2024-01-20T12:13:58.726272,2.13102762,.0017288,64.3350,221.6778,9.3479,52.8456,0,U,32395,999,12500,0,.112E-5,0
NAVSTAR 62 (USA 201),2008-012A,2024-01-20T03:33:47.673216,2.00562577,.018024,54.4514,184.9904,236.8245,121.4213,0,U,32711,999,11612,0,.82E-6,0
NAVSTAR 64 (USA 206),2009-043A,2024-01-20T06:08:44.709792,2.00549917,.0055412,55.5486,62.2115,69.8533,20.9474,0,U,35752,999,10573,0,-.67E-6,0
COSMOS 2456,2009-070A,2024-01-20T09:42:43.576992,2.13098889,.0004054,64.5462,101.0644,295.6543,67.6820,0,U,36111,999,10970,0,-.51E-6,0
COSMOS 2457,2009-070B,2024-01-20T07:07:00.789888,2.13101081,.0004863,64.5305,100.9302,175.6015,236.6555,0,U,36112,999,10970,0,-.5E-6,0
COSMOS 2460,2010-007C,2024-01-20T09:13:47.598816,2.13106151,.0002655,65.8451,344.0331,308.2198,161.6409,0,U,36402,999,10800,0,-.8E-6,0
NAVSTAR 65 (USA 213),2010-022A,2024-01-20T05:05:19.468896,2.00569046,.0115508,54.5031,244.0171,60.7219,121.1036,0,U,36585,999,9996,0,.65E-6,0
BEIDOU-2 IGSO-1,2010-036A,2024-01-20T08:08:43.554336,1.00269854,.0038896,54.2468,170.9150,192.3809,346.7161,0,U,36828,999,4939,0,-.85E-6,0
QZS-1 (MICHIBIKI-1),2010-045A,2024-01-18T11:49:38.048736,0.87715038,.0003013,43.0564,126.1383,145.1939,209.9563,0,U,37158,999,4867,0,-.3E-6,0
BEIDOU-2 G4,2010-057A,2024-01-20T15:15:22.401216,1.00272006,.0007596,1.4925,66.0713,195.3299,247.0108,0,U,37210,999,4848,0,-.109E-5,0
BEIDOU-2 IGSO-2,2010-068A,2024-01-19T17:24:33.219072,1.00298066,.0031684,49.1524,282.6385,213.8148,348.4521,0,U,37256,999,4797,0,-.196E-5,0
BEIDOU-2 IGSO-3,2011-013A,2024-01-18T00:27:42.892416,1.00296498,.0028665,61.1348,48.5701,183.6346,357.5535,0,U,37384,999,4682,0,-.18E-5,0
GSAT-8,2011-022A,2024-01-20T11:19:34.636224,1.00271137,.0008705,0.0516,254.5025,20.0601,69.7231,0,U,37605,999,4440,0,.89E-6,0
BEIDOU-2 IGSO-4,2011-038A,2024-01-20T09:35:32.588736,1.00289889,.0117483,54.5544,173.4960,226.5759,316.9959,0,U,37763,999,4583,0,-.1E-6,0
